CTC1_L_00205001-01
1 77111U 25337KM  26070.40833333  .00000000  00000+0  00000-0 0  9998
2 77111 100.0000   0.0000 0000000   0.0000   0.0000 13.56072486    13
CTC1_L_00205001-02
1 77112U 26852UN  26070.40833333  .00000000  00000+0  00000-0 0  9992
2 77112 100.0000   0.0000 0000000   0.0000  90.0000 13.56072486    13
CTC1_L_00205001-03
1 77113U 25765UQ  26070.40833333  .00000000  00000+0  00000-0 0  9995
2 77113 100.0000   0.0000 0000000   0.0000 180.0000 13.56072486    14
CTC1_L_00205001-04
1 77114U 22263XV  26070.40833333  .00000000  00000+0  00000-0 0  9996
2 77114 100.0000   0.0000 0000000   0.0000 270.0000 13.56072486    15
CTC1_L_00205002-01
1 77115U 22254JS  26070.40833333  .00000000  00000+0  00000-0 0  9997
2 77115 100.0000  12.0000 0000000   0.0000  12.0000 13.56072486    13
CTC1_L_00205002-02
1 77116U 22785UN  26070.40833333  .00000000  00000+0  00000-0 0  9997
2 77116 100.0000  12.0000 0000000   0.0000 102.0000 13.56072486    14
CTC1_L_00205002-03
1 77117U 23880QH  26070.40833333  .00000000  00000+0  00000-0 0  9995
2 77117 100.0000  12.0000 0000000   0.0000 192.0000 13.56072486    14
CTC1_L_00205002-04
1 77118U 25194HO  26070.40833333  .00000000  00000+0  00000-0 0  9996
2 77118 100.0000  12.0000 0000000   0.0000 282.0000 13.56072486    15
CTC1_L_00205003-01
1 77119U 24100BK  26070.40833333  .00000000  00000+0  00000-0 0  9993
2 77119 100.0000  24.0000 0000000   0.0000  24.0000 13.56072486    13
CTC1_L_00205003-02
1 77120U 24031KZ  26070.40833333  .00000000  00000+0  00000-0 0  9998
2 77120 100.0000  24.0000 0000000   0.0000 114.0000 13.56072486    15
CTC1_L_00205003-03
1 77121U 22114RC  26070.40833333  .00000000  00000+0  00000-0 0  9999
2 77121 100.0000  24.0000 0000000   0.0000 204.0000 13.56072486    16
CTC1_L_00205003-04
1 77122U 22510IF  26070.40833333  .00000000  00000+0  00000-0 0  9990
2 77122 100.0000  24.0000 0000000   0.0000 294.0000 13.56072486    16
CTC1_L_00205004-01
1 77123U 23108UQ  26070.40833333  .00000000  00000+0  00000-0 0  9995
2 77123 100.0000  36.0000 0000000   0.0000  36.0000 13.56072486    14
CTC1_L_00205004-02
1 77124U 22471ED  26070.40833333  .00000000  00000+0  00000-0 0  9998
2 77124 100.0000  36.0000 0000000   0.0000 126.0000 13.56072486    15
CTC1_L_00205004-03
1 77125U 22297UJ  26070.40833333  .00000000  00000+0  00000-0 0  9995
2 77125 100.0000  36.0000 0000000   0.0000 216.0000 13.56072486    16
CTC1_L_00205004-04
1 77126U 24287EU  26070.40833333  .00000000  00000+0  00000-0 0  9997
2 77126 100.0000  36.0000 0000000   0.0000 306.0000 13.56072486    17
CTC1_L_00205005-01
1 77127U 24962JI  26070.40833333  .00000000  00000+0  00000-0 0  9998
2 77127 100.0000  48.0000 0000000   0.0000  48.0000 13.56072486    14
CTC1_L_00205005-02
1 77128U 25173ZX  26070.40833333  .00000000  00000+0  00000-0 0  9994
2 77128 100.0000  48.0000 0000000   0.0000 138.0000 13.56072486    15
CTC1_L_00205005-03
1 77129U 22132EU  26070.40833333  .00000000  00000+0  00000-0 0  9997
2 77129 100.0000  48.0000 0000000   0.0000 228.0000 13.56072486    16
CTC1_L_00205005-04
1 77130U 26326UC  26070.40833333  .00000000  00000+0  00000-0 0  9998
2 77130 100.0000  48.0000 0000000   0.0000 318.0000 13.56072486    18
CTC1_L_00205006-01
1 77131U 24598GW  26070.40833333  .00000000  00000+0  00000-0 0  9998
2 77131 100.0000  60.0000 0000000   0.0000  60.0000 13.56072486    17
CTC1_L_00205006-02
1 77132U 23660GH  26070.40833333  .00000000  00000+0  00000-0 0  9998
2 77132 100.0000  60.0000 0000000   0.0000 150.0000 13.56072486    18
CTC1_L_00205006-03
1 77133U 22240WE  26070.40833333  .00000000  00000+0  00000-0 0  9992
2 77133 100.0000  60.0000 0000000   0.0000 240.0000 13.56072486    19
CTC1_L_00205006-04
1 77134U 25130MY  26070.40833333  .00000000  00000+0  00000-0 0  9994
2 77134 100.0000  60.0000 0000000   0.0000 330.0000 13.56072486    10
CTC1_L_00205007-01
1 77135U 26759UI  26070.40833333  .00000000  00000+0  00000-0 0  9993
2 77135 100.0000  72.0000 0000000   0.0000  72.0000 13.56072486    17
CTC1_L_00205007-02
1 77136U 22585FX  26070.40833333  .00000000  00000+0  00000-0 0  9997
2 77136 100.0000  72.0000 0000000   0.0000 162.0000 13.56072486    18
CTC1_L_00205007-03
1 77137U 22405PH  26070.40833333  .00000000  00000+0  00000-0 0  9999
2 77137 100.0000  72.0000 0000000   0.0000 252.0000 13.56072486    19
CTC1_L_00205007-04
1 77138U 23902W   26070.40833333  .00000000  00000+0  00000-0 0  9993
2 77138 100.0000  72.0000 0000000   0.0000 342.0000 13.56072486    10
CTC1_L_00205008-01
1 77139U 22739CD  26070.40833333  .00000000  00000+0  00000-0 0  9991
2 77139 100.0000  84.0000 0000000   0.0000  84.0000 13.56072486    17
CTC1_L_00205008-02
1 77140U 26796VG  26070.40833333  .00000000  00000+0  00000-0 0  9990
2 77140 100.0000  84.0000 0000000   0.0000 174.0000 13.56072486    19
CTC1_L_00205008-03
1 77141U 26793QN  26070.40833333  .00000000  00000+0  00000-0 0  9998
2 77141 100.0000  84.0000 0000000   0.0000 264.0000 13.56072486    10
CTC1_L_00205008-04
1 77142U 22456SY  26070.40833333  .00000000  00000+0  00000-0 0  9991
2 77142 100.0000  84.0000 0000000   0.0000 354.0000 13.56072486    11
CTC1_L_00205009-01
1 77143U 22689HC  26070.40833333  .00000000  00000+0  00000-0 0  9990
2 77143 100.0000  96.0000 0000000   0.0000  96.0000 13.56072486    18
CTC1_L_00205009-02
1 77144U 26121KG  26070.40833333  .00000000  00000+0  00000-0 0  9996
2 77144 100.0000  96.0000 0000000   0.0000 186.0000 13.56072486    19
CTC1_L_00205009-03
1 77145U 24767LA  26070.40833333  .00000000  00000+0  00000-0 0  9991
2 77145 100.0000  96.0000 0000000   0.0000 276.0000 13.56072486    10
CTC1_L_00205009-04
1 77146U 24734VJ  26070.40833333  .00000000  00000+0  00000-0 0  9996
2 77146 100.0000  96.0000 0000000   0.0000   6.0000 13.56072486    12
CTC1_L_00205010-01
1 77147U 25134KA  26070.40833333  .00000000  00000+0  00000-0 0  9992
2 77147 100.0000 108.0000 0000000   0.0000 108.0000 13.56072486    10
CTC1_L_00205010-02
1 77148U 24545YF  26070.40833333  .00000000  00000+0  00000-0 0  9998
2 77148 100.0000 108.0000 0000000   0.0000 198.0000 13.56072486    10
CTC1_L_00205010-03
1 77149U 22432FY  26070.40833333  .00000000  00000+0  00000-0 0  9992
2 77149 100.0000 108.0000 0000000   0.0000 288.0000 13.56072486    11
CTC1_L_00205010-04
1 77150U 22515SI  26070.40833333  .00000000  00000+0  00000-0 0  9996
2 77150 100.0000 108.0000 0000000   0.0000  18.0000 13.56072486    14
CTC1_L_00205011-01
1 77151U 26658TW  26070.40833333  .00000000  00000+0  00000-0 0  9999
2 77151 100.0000 120.0000 0000000   0.0000 120.0000 13.56072486    13
CTC1_L_00205011-02
1 77152U 24548ZW  26070.40833333  .00000000  00000+0  00000-0 0  9996
2 77152 100.0000 120.0000 0000000   0.0000 210.0000 13.56072486    14
CTC1_L_00205011-03
1 77153U 26554AZ  26070.40833333  .00000000  00000+0  00000-0 0  9996
2 77153 100.0000 120.0000 0000000   0.0000 300.0000 13.56072486    15
CTC1_L_00205011-04
1 77154U 26992CK  26070.40833333  .00000000  00000+0  00000-0 0  9993
2 77154 100.0000 120.0000 0000000   0.0000  30.0000 13.56072486    16
CTC1_L_00205012-01
1 77155U 24819LM  26070.40833333  .00000000  00000+0  00000-0 0  9990
2 77155 100.0000 132.0000 0000000   0.0000 132.0000 13.56072486    13
CTC1_L_00205012-02
1 77156U 22316TN  26070.40833333  .00000000  00000+0  00000-0 0  9991
2 77156 100.0000 132.0000 0000000   0.0000 222.0000 13.56072486    14
CTC1_L_00205012-03
1 77157U 22630SV  26070.40833333  .00000000  00000+0  00000-0 0  9991
2 77157 100.0000 132.0000 0000000   0.0000 312.0000 13.56072486    15
CTC1_L_00205012-04
1 77158U 22191VZ  26070.40833333  .00000000  00000+0  00000-0 0  9994
2 77158 100.0000 132.0000 0000000   0.0000  42.0000 13.56072486    16
CTC1_L_00205013-01
1 77159U 22175F   26070.40833333  .00000000  00000+0  00000-0 0  9997
2 77159 100.0000 144.0000 0000000   0.0000 144.0000 13.56072486    13
CTC1_L_00205013-02
1 77160U 25271VF  26070.40833333  .00000000  00000+0  00000-0 0  9999
2 77160 100.0000 144.0000 0000000   0.0000 234.0000 13.56072486    15
CTC1_L_00205013-03
1 77161U 23967PO  26070.40833333  .00000000  00000+0  00000-0 0  9990
2 77161 100.0000 144.0000 0000000   0.0000 324.0000 13.56072486    16
CTC1_L_00205013-04
1 77162U 24985LZ  26070.40833333  .00000000  00000+0  00000-0 0  9992
2 77162 100.0000 144.0000 0000000   0.0000  54.0000 13.56072486    17
CTC1_L_00205014-01
1 77163U 24745TT  26070.40833333  .00000000  00000+0  00000-0 0  9997
2 77163 100.0000 156.0000 0000000   0.0000 156.0000 13.56072486    14
CTC1_L_00205014-02
1 77164U 23174YL  26070.40833333  .00000000  00000+0  00000-0 0  9993
2 77164 100.0000 156.0000 0000000   0.0000 246.0000 13.56072486    15
CTC1_L_00205014-03
1 77165U 24145EY  26070.40833333  .00000000  00000+0  00000-0 0  9993
2 77165 100.0000 156.0000 0000000   0.0000 336.0000 13.56072486    16
CTC1_L_00205014-04
1 77166U 26987WG  26070.40833333  .00000000  00000+0  00000-0 0  9990
2 77166 100.0000 156.0000 0000000   0.0000  66.0000 13.56072486    17
CTC1_L_00205015-01
1 77167U 26087GP  26070.40833333  .00000000  00000+0  00000-0 0  9992
2 77167 100.0000 168.0000 0000000   0.0000 168.0000 13.56072486    14
CTC1_L_00205015-02
1 77168U 23848IF  26070.40833333  .00000000  00000+0  00000-0 0  9995
2 77168 100.0000 168.0000 0000000   0.0000 258.0000 13.56072486    15
CTC1_L_00205015-03
1 77169U 23359GL  26070.40833333  .00000000  00000+0  00000-0 0  9993
2 77169 100.0000 168.0000 0000000   0.0000 348.0000 13.56072486    16
CTC1_L_00205015-04
1 77170U 26645OT  26070.40833333  .00000000  00000+0  00000-0 0  9996
2 77170 100.0000 168.0000 0000000   0.0000  78.0000 13.56072486    18
CTC1_L_00205016-01
1 77171U 26054HF  26070.40833333  .00000000  00000+0  00000-0 0  9991
2 77171 100.0000 180.0000 0000000   0.0000 180.0000 13.56072486    17
CTC1_L_00205016-02
1 77172U 22678UD  26070.40833333  .00000000  00000+0  00000-0 0  9990
2 77172 100.0000 180.0000 0000000   0.0000 270.0000 13.56072486    18
